NORAD_CAT_ID,OBJECT_NAME,OBJECT_TYPE,EPOCH,MEAN_MOTION,ECCENTRICITY,INCLINATION,RA_OF_ASC_NODE,ARG_OF_PERICENTER,MEAN_ANOMALY,BSTAR,MEAN_MOTION_DOT,MEAN_MOTION_DDOT,TLE_LINE0,TLE_LINE1,TLE_LINE2,SEMIMAJOR_AXIS,PERIOD,APOGEE,PERIGEE,DECAYED
52484.0,STARLINK-3887,PAYLOAD,2022-07-08 14:00:01,15.38058802,0.0001966,53.2175,316.3065,27.2571,353.1776,-0.030649,-0.01069878,0.0,0 STARLINK-3887,1 52484U 22049AK  22189.58334491 -.01069878  00000-0 -30649-1 0  9993,2 52484  53.2175 316.3065 0001966  27.2571 353.1776 15.38058802 10089,6829.986999999999,93.625,453.195,450.509,0.0
52484.0,STARLINK-3887,PAYLOAD,2022-07-08 22:00:01,15.37298991,0.0001522,53.2171,314.745,42.4067,24.3298,-0.031385,-0.01068686,0.0,0 STARLINK-3887,1 52484U 22049AK  22189.91668981 -.01068686  00000-0 -31385-1 0  9998,2 52484  53.2171 314.7450 0001522  42.4067  24.3298 15.37298991  1307,6832.236999999999,93.671,455.142,453.06300000000016,0.0
52484.0,STARLINK-3887,PAYLOAD,2022-07-09 14:00:01,15.35778233,0.0001978,53.2173,311.6273,35.653,120.7572,-0.032894,-0.01066451,0.0,0 STARLINK-3887,1 52484U 22049AK  22190.58334491 -.01066451  00000-0 -32894-1 0  9993,2 52484  53.2173 311.6273 0001978  35.6530 120.7572 15.35778233  1308,6836.746999999999,93.764,459.964,457.26,0.0
52484.0,STARLINK-3887,PAYLOAD,2022-07-09 16:00:00,15.35589369,0.0001845,53.2174,311.2385,38.4591,218.9107,-0.033132,-0.01067515,0.0,0 STARLINK-3887,1 52484U 22049AK  22190.66667824 -.01067515  00000-0 -33132-1 0  9999,2 52484  53.2174 311.2385 0001845  38.4591 218.9107 15.35589369 10247,6837.307,93.775,460.434,457.911,0.0
52484.0,STARLINK-3887,PAYLOAD,2022-07-09 20:00:01,15.35208728,0.0001675,53.2171,310.4604,39.7623,59.3576,-0.033474,-0.01065526,0.0,0 STARLINK-3887,1 52484U 22049AK  22190.83334491 -.01065526  00000-0 -33474-1 0  9998,2 52484  53.2171 310.4604 0001675  39.7623  59.3576 15.35208728  1301,6838.438,93.798,461.448,459.157,0.0
52484.0,STARLINK-3887,PAYLOAD,2022-07-10 14:00:01,15.33499918,0.0001828,53.2172,306.9644,36.4553,247.7151,-0.03538,-0.01066261,0.0,0 STARLINK-3887,1 52484U 22049AK  22191.58334491 -.01066261  00000-0 -35380-1 0  9996,2 52484  53.2172 306.9644 0001828  36.4553 247.7151 15.33499918 10394,6843.517,93.903,466.633,464.131,0.0
52484.0,STARLINK-3887,PAYLOAD,2022-07-10 22:00:00,15.32743514,0.000169,53.2173,305.4133,34.9873,289.944,-0.036429,-0.01071349,0.0,0 STARLINK-3887,1 52484U 22049AK  22191.91667824 -.01071349  00000-0 -36429-1 0  9990,2 52484  53.2173 305.4133 0001690  34.9873 289.9440 15.32743514  1300,6845.768,93.949,468.79,466.476,0.0
52484.0,STARLINK-3887,PAYLOAD,2022-07-11 14:00:01,15.31223536,0.0002013,53.2173,302.3176,28.741,14.9753,-0.038141,-0.01069483,0.0,0 STARLINK-3887,1 52484U 22049AK  22192.58334491 -.01069483  00000-0 -38141-1 0  9994,2 52484  53.2173 302.3176 0002013  28.7410  14.9753 15.31223536  1300,6850.2980000000025,94.042,473.542,470.784,0.0
52484.0,STARLINK-3887,PAYLOAD,2022-07-11 22:00:00,15.30462657,0.0001629999999999,53.2173,300.7717,40.458,41.2828,-0.038959,-0.01066864,0.0,0 STARLINK-3887,1 52484U 22049AK  22192.91667824 -.01066864  00000-0 -38959-1 0  9997,2 52484  53.2173 300.7717 0001630  40.4580  41.2828 15.30462657  1300,6852.568,94.089,475.55,473.316,0.0
52484.0,STARLINK-3887,PAYLOAD,2022-07-12 14:00:01,15.28943053,0.0002331,53.2173,297.6868,28.3613,126.6883,-0.040793,-0.01065839,0.0,0 STARLINK-3887,1 52484U 22049AK  22193.58334491 -.01065839  00000-0 -40793-1 0  9992,2 52484  53.2173 297.6868 0002331  28.3613 126.6883 15.28943053 10694,6857.108,94.183,480.571,477.374,0.0
52484.0,STARLINK-3887,PAYLOAD,2022-07-12 22:00:00,15.28183961,0.0002023,53.2174,296.1462,34.3415,155.9942,-0.041785,-0.01066369,0.0,0 STARLINK-3887,1 52484U 22049AK  22193.91667824 -.01066369  00000-0 -41785-1 0  9999,2 52484  53.2174 296.1462 0002023  34.3415 155.9942 15.28183961  1307,6859.378000000002,94.229,482.631,479.856,0.0
52484.0,STARLINK-3887,PAYLOAD,2022-07-13 14:00:01,15.26663713,0.0001721999999999,53.2175,293.0723,45.463,212.7056,-0.043673,-0.01063981,0.0,0 STARLINK-3887,1 52484U 22049AK  22194.58334491 -.01063981  00000-0 -43673-1 0  9999,2 52484  53.2175 293.0723 0001722  45.4630 212.7056 15.26663713 10855,6863.931,94.323,486.978,484.614,0.0
52484.0,STARLINK-3887,PAYLOAD,2022-07-13 22:00:00,15.25906648,0.0001491,53.2174,291.5368,49.2466,241.4693,-0.044894,-0.0106838,0.0,0 STARLINK-3887,1 52484U 22049AK  22194.91667824 -.01068380  00000-0 -44894-1 0  9999,2 52484  53.2174 291.5368 0001491  49.2466 241.4693 15.25906648  1306,6866.201,94.37,489.09,487.043,0.0
52484.0,STARLINK-3887,PAYLOAD,2022-07-14 14:00:01,15.24387102,0.0001655,53.2175,288.4738,39.7709,313.3015,-0.046932,-0.01066927,0.0,0 STARLINK-3887,1 52484U 22049AK  22195.58334491 -.01066927  00000-0 -46932-1 0  9994,2 52484  53.2175 288.4738 0001655  39.7709 313.3015 15.24387102 11001,6870.763000000001,94.464,493.766,491.491,0.0
52484.0,STARLINK-3887,PAYLOAD,2022-07-14 22:00:00,15.23627288,0.0001551999999999,53.2175,286.9434,41.4818,341.4012,-0.048009,-0.01066795,0.0,0 STARLINK-3887,1 52484U 22049AK  22195.91667824 -.01066795  00000-0 -48009-1 0  9990,2 52484  53.2175 286.9434 0001552  41.4818 341.4012 15.23627288  1306,6873.0480000000025,94.511,495.979,493.846,0.0
52484.0,STARLINK-3887,PAYLOAD,2022-07-15 14:00:01,15.22108757,0.0001942,53.2176,283.8913,34.8283,44.9348,-0.050246,-0.01067144,0.0,0 STARLINK-3887,1 52484U 22049AK  22196.58334491 -.01067144  00000-0 -50246-1 0  9990,2 52484  53.2176 283.8913 0001942  34.8283  44.9348 15.22108757 11155,6877.618,94.606,500.819,498.147,0.0
52484.0,STARLINK-3887,PAYLOAD,2022-07-15 22:00:00,15.21347672,0.0001743,53.2175,282.3662,40.9446,65.8914,-0.051251,-0.01064433,0.0,0 STARLINK-3887,1 52484U 22049AK  22196.91667824 -.01064433  00000-0 -51251-1 0  9991,2 52484  53.2175 282.3662 0001743  40.9446  65.8914 15.21347672  1304,6879.9119999999975,94.653,502.976,500.577,0.0
52484.0,STARLINK-3887,PAYLOAD,2022-07-16 14:00:01,15.19828235,0.0002022,53.2176,279.3248,37.7394,120.5009,-0.053533,-0.01063384,0.0,0 STARLINK-3887,1 52484U 22049AK  22197.58334491 -.01063384  00000-0 -53533-1 0  9995,2 52484  53.2176 279.3248 0002022  37.7394 120.5009 15.19828235 11309,6884.496,94.748,507.753,504.969,0.0
52484.0,STARLINK-3887,PAYLOAD,2022-07-16 22:00:00,15.19069356,0.0001753,53.2175,277.8049,46.0625,136.5122,-0.054793,-0.0106439,0.0,0 STARLINK-3887,1 52484U 22049AK  22197.91667824 -.01064390  00000-0 -54793-1 0  9998,2 52484  53.2175 277.8049 0001753  46.0625 136.5122 15.19069356  1303,6886.7890000000025,94.795,509.861,507.447,0.0
52484.0,STARLINK-3887,PAYLOAD,2022-07-17 14:00:01,15.175484699999998,0.0001994,53.2175,274.7743,38.4065,190.0969,-0.057048,-0.01074136,0.0,0 STARLINK-3887,1 52484U 22049AK  22198.58334491 -.01074136  00000-0 -57048-1 0  9998,2 52484  53.2175 274.7743 0001994  38.4065 190.0969 15.17548470 11458,6891.389,94.89,514.629,511.88,0.0
52484.0,STARLINK-3887,PAYLOAD,2022-07-17 22:00:00,15.16791516,0.000186,53.2175,273.2596,38.9778,211.1214,-0.058586,-0.01078894,0.0,0 STARLINK-3887,1 52484U 22049AK  22198.91667824 -.01078894  00000-0 -58586-1 0  9997,2 52484  53.2175 273.2596 0001860  38.9778 211.1214 15.16791516  1307,6893.682,94.937,516.8290000000002,514.265,0.0
52484.0,STARLINK-3887,PAYLOAD,2022-07-18 14:00:01,15.15267801,0.0002006,53.2176,270.2397,21.4428,269.1104,-0.060712,-0.01070953,0.0,0 STARLINK-3887,1 52484U 22049AK  22199.58334491 -.01070953  00000-0 -60712-1 0  9994,2 52484  53.2176 270.2397 0002006  21.4428 269.1104 15.15267801  1301,6898.303000000001,95.033,521.5509999999998,518.784,0.0
52484.0,STARLINK-3887,PAYLOAD,2022-07-18 16:00:00,15.15078554,0.0002193,53.2174,269.8625,20.8471,4.5056,-0.061059,-0.01071291,0.0,0 STARLINK-3887,1 52484U 22049AK  22199.66667824 -.01071291  00000-0 -61059-1 0  9993,2 52484  53.2174 269.8625 0002193  20.8471   4.5056 15.15078554 11623,6898.877,95.045,522.255,519.229,0.0
52484.0,STARLINK-3887,PAYLOAD,2022-07-18 22:00:00,15.14512758,0.0001424,53.2175,268.7303,53.3319,256.0782,-0.062514,-0.01078595,0.0,0 STARLINK-3887,1 52484U 22049AK  22199.91667824 -.01078595  00000-0 -62514-1 0  9992,2 52484  53.2175 268.7303 0001424  53.3319 256.0782 15.14512758  1305,6900.595,95.08,523.443,521.4780000000002,0.0
52484.0,STARLINK-3887,PAYLOAD,2022-07-19 14:00:01,15.12991316,0.0001553,53.2175,265.721,46.5082,297.8788,-0.064944,-0.01073739,0.0,0 STARLINK-3887,1 52484U 22049AK  22200.58334491 -.01073739  00000-0 -64944-1 0  9993,2 52484  53.2175 265.7210 0001553  46.5082 297.8788 15.12991316 11762,6905.22,95.176,528.158,526.013,0.0
52484.0,STARLINK-3887,PAYLOAD,2022-07-19 22:00:00,15.12233239,0.0001489,53.2175,264.2167,46.981,313.5264,-0.066565,-0.0107707,0.0,0 STARLINK-3887,1 52484U 22049AK  22200.91667824 -.01077070  00000-0 -66565-1 0  9992,2 52484  53.2175 264.2167 0001489  46.9810 313.5264 15.12233239  1316,6907.528,95.223,530.422,528.364,0.0
52484.0,STARLINK-3887,PAYLOAD,2022-07-20 14:00:01,15.10711753,0.0001455,53.2174,261.2181,52.5183,337.49,-0.069121,-0.0107227,0.0,0 STARLINK-3887,1 52484U 22049AK  22201.58334491 -.01072270  00000-0 -69121-1 0  9995,2 52484  53.2174 261.2181 0001455  52.5183 337.4900 15.10711753  1308,6912.165,95.319,535.036,533.024,0.0
52484.0,STARLINK-3887,PAYLOAD,2022-07-20 22:00:01,15.09921789,0.0001486,53.2175,259.7184,55.1029,348.3581,-0.065856,-0.01004451,0.0,0 STARLINK-3887,1 52484U 22049AK  22201.91668981 -.01004451  00000-0 -65856-1 0  9993,2 52484  53.2175 259.7184 0001486  55.1029 348.3581 15.09921789  1302,6914.576,95.369,537.4680000000002,535.413,0.0
52484.0,STARLINK-3887,PAYLOAD,2022-07-21 06:00:00,15.09119564,0.000158,53.2176,258.2217,55.3604,0.5075,-0.025304,-0.00384947,0.0,0 STARLINK-3887,1 52484U 22049AK  22202.25001157 -.00384947  00000-0 -25304-1 0  9991,2 52484  53.2176 258.2217 0001580  55.3604   0.5075 15.09119564 12015,6917.026,95.42,539.984,537.798,0.0
